NORAD_CAT_ID,OBJECT_NAME,OBJECT_TYPE,EPOCH,MEAN_MOTION,ECCENTRICITY,INCLINATION,RA_OF_ASC_NODE,ARG_OF_PERICENTER,MEAN_ANOMALY,BSTAR,MEAN_MOTION_DOT,MEAN_MOTION_DDOT,TLE_LINE0,TLE_LINE1,TLE_LINE2,SEMIMAJOR_AXIS,PERIOD,APOGEE,PERIGEE,DECAYED
56451.0,STARLINK-5985,PAYLOAD,2024-01-02 09:17:57,14.98331984,0.0002786,70.0,354.9118,266.1826,93.9015,7.6637e-05,8.22e-06,0.0,0 STARLINK-5985,1 56451U 23064D   24002.38747531  .00000822  00000-0  76637-4 0  9997,2 56451  70.0000 354.9118 0002786 266.1826  93.9015 14.98331984 36179,6950.187,96.107,573.988,570.115,0.0
56451.0,STARLINK-5985,PAYLOAD,2024-01-03 09:19:59,14.98329006,0.0002751,70.0003,352.3878,264.8102,95.2743,-1.1947e-05,-2.35e-06,0.0,0 STARLINK-5985,1 56451U 23064D   24003.38887869 -.00000235  00000-0 -11947-4 0  9990,2 56451  70.0003 352.3878 0002751 264.8102  95.2743 14.98329006 36323,6950.196,96.107,573.973,570.149,0.0
56451.0,STARLINK-5985,PAYLOAD,2024-01-04 09:21:59,14.98332914,0.0002793,70.0002,349.8626,267.012,93.0719,4.7934e-06,-3.6e-07,0.0,0 STARLINK-5985,1 56451U 23064D   24004.39027479 -.00000036  00000-0  47934-5 0  9999,2 56451  70.0002 349.8626 0002793 267.0120  93.0719 14.98332914 36472,6950.184,96.107,573.99,570.108,0.0
56451.0,STARLINK-5985,PAYLOAD,2024-01-04 22:11:04,14.98330312,0.0002802,70.0002,348.516,266.3575,93.7264,1.5766e-05,9.5e-07,0.0,0 STARLINK-5985,1 56451U 23064D   24004.92435509  .00000095  00000-0  15766-4 0  9996,2 56451  70.0002 348.5160 0002802 266.3575  93.7264 14.98330312 36199,6950.192,96.107,574.004,570.109,0.0
56451.0,STARLINK-5985,PAYLOAD,2024-01-05 07:47:52,14.98330129,0.000262,70.0002,347.5055,260.0334,100.053,3.8791e-05,3.7e-06,0.0,0 STARLINK-5985,1 56451U 23064D   24005.32491437  .00000370  00000-0  38791-4 0  9992,2 56451  70.0002 347.5055 0002620 260.0334 100.0530 14.98330129 36254,6950.192,96.107,573.878,570.237,0.0
56451.0,STARLINK-5985,PAYLOAD,2024-01-05 22:13:05,14.98327412,0.000261,70.0005,345.9908,263.5763,96.5099,-2.0441e-05,-3.37e-06,0.0,0 STARLINK-5985,1 56451U 23064D   24005.92575800 -.00000337  00000-0 -20441-4 0  9993,2 56451  70.0005 345.9908 0002610 263.5763  96.5099 14.98327412 36349,6950.201,96.107,573.88,570.252,0.0
56451.0,STARLINK-5985,PAYLOAD,2024-01-06 04:37:38,14.98305184,0.0002617,70.0005,345.317,261.2651,98.8212,0.00030379,3.531e-05,0.0,0 STARLINK-5985,1 56451U 23064D   24006.19280307  .00003531  00000-0  30379-3 0  9995,2 56451  70.0005 345.3170 0002617 261.2651  98.8212 14.98305184 36740,6950.27,96.109,573.954,570.316,0.0
56451.0,STARLINK-5985,PAYLOAD,2024-01-06 07:49:54,14.98324937,0.0002585,70.0004,344.9794,270.5515,89.5348,-1.5845e-05,-2.82e-06,0.0,0 STARLINK-5985,1 56451U 23064D   24006.32632085 -.00000282  00000-0 -15845-4 0  9998,2 56451  70.0004 344.9794 0002585 270.5515  89.5348 14.98324937 36768,6950.209,96.107,573.87,570.277,0.0
56451.0,STARLINK-5985,PAYLOAD,2024-01-06 22:15:06,14.98328834,0.0002953,69.9997,343.4644,271.21,88.8721,-3.4423e-06,-1.34e-06,0.0,0 STARLINK-5985,1 56451U 23064D   24006.92715747 -.00000134  00000-0 -34423-5 0  9991,2 56451  69.9997 343.4644 0002953 271.2100  88.8721 14.98328834 36498,6950.196,96.107,574.114,570.009,0.0
56451.0,STARLINK-5985,PAYLOAD,2024-01-07 03:03:30,14.9832928,0.000274,70.0005,342.9604,265.0938,94.9908,1.356e-05,6.9e-07,0.0,0 STARLINK-5985,1 56451U 23064D   24007.12743644  .00000069  00000-0  13560-4 0  9994,2 56451  70.0005 342.9604 0002740 265.0938  94.9908 14.98329280 36889,6950.195,96.107,573.964,570.156,0.0
56451.0,STARLINK-5985,PAYLOAD,2024-01-07 07:51:54,14.983313,0.0002757,70.0003,342.4555,266.3218,93.7626,4.6879e-05,4.66e-06,0.0,0 STARLINK-5985,1 56451U 23064D   24007.32771444  .00000466  00000-0  46879-4 0  9995,2 56451  70.0003 342.4555 0002757 266.3218  93.7626 14.98331300 36554,6950.189,96.107,573.97,570.138,0.0
56451.0,STARLINK-5985,PAYLOAD,2024-01-07 22:17:07,14.98326796,0.000264,70.001,340.9418,263.928,96.1578,4.7319e-05,4.72e-06,0.0,0 STARLINK-5985,1 56451U 23064D   24007.92855744  .00000472  00000-0  47319-4 0  9994,2 56451  70.0010 340.9418 0002640 263.9280  96.1578 14.98326796 36642,6950.203,96.107,573.903,570.233,0.0
56451.0,STARLINK-5985,PAYLOAD,2024-01-08 03:05:31,14.9832656,0.0002674,70.0006,340.4358,264.2519,95.8335,2.9056e-05,2.54e-06,0.0,0 STARLINK-5985,1 56451U 23064D   24008.12883806  .00000254  00000-0  29056-4 0  9993,2 56451  70.0006 340.4358 0002674 264.2519  95.8335 14.98326560 37031,6950.204,96.107,573.927,570.21,0.0
56451.0,STARLINK-5985,PAYLOAD,2024-01-08 07:53:55,14.98328563,0.0002674,70.0006,339.9305,265.7028,94.3825,4.8339e-05,4.84e-06,0.0,0 STARLINK-5985,1 56451U 23064D   24008.32911657  .00000484  00000-0  48339-4 0  9991,2 56451  70.0006 339.9305 0002674 265.7028  94.3825 14.98328563 36703,6950.197,96.107,573.921,570.204,0.0
56451.0,STARLINK-5985,PAYLOAD,2024-01-08 22:19:08,14.98333232,0.000243,70.0007,338.4153,266.4554,93.6328,3.2737e-05,2.98e-06,0.0,0 STARLINK-5985,1 56451U 23064D   24008.92995385  .00000298  00000-0  32737-4 0  9995,2 56451  70.0007 338.4153 0002430 266.4554  93.6328 14.98333232 36799,6950.183,96.107,573.737,570.359,0.0
56451.0,STARLINK-5985,PAYLOAD,2024-01-09 04:43:40,14.98335124,0.0002613,70.0006,337.7421,267.5027,92.5833,-2.0176e-05,-3.34e-06,0.0,0 STARLINK-5985,1 56451U 23064D   24009.19699338 -.00000334  00000-0 -20176-4 0  9991,2 56451  70.0006 337.7421 0002613 267.5027  92.5833 14.98335124 37194,6950.177,96.107,573.858,570.226,0.0
56451.0,STARLINK-5985,PAYLOAD,2024-01-09 07:55:56,14.98334925,0.000271,70.0005,337.4057,267.1357,92.9492,3.5782e-05,3.34e-06,0.0,0 STARLINK-5985,1 56451U 23064D   24009.33051140  .00000334  00000-0  35782-4 0  9997,2 56451  70.0005 337.4057 0002710 267.1357  92.9492 14.98334925 36850,6950.178,96.107,573.926,570.159,0.0
56451.0,STARLINK-5985,PAYLOAD,2024-01-09 22:21:09,14.98330218,0.0002641,70.0007,335.8904,270.1987,89.8869,1.1495e-05,4.4e-07,0.0,0 STARLINK-5985,1 56451U 23064D   24009.93135436  .00000044  00000-0  11495-4 0  9997,2 56451  70.0007 335.8904 0002641 270.1987  89.8869 14.98330218 36945,6950.192,96.107,573.893,570.222,0.0
56451.0,STARLINK-5985,PAYLOAD,2024-01-10 04:45:41,14.98330509,0.000264,70.0006,335.2172,269.7534,90.3323,1.3024e-05,6.2e-07,0.0,0 STARLINK-5985,1 56451U 23064D   24010.19839394  .00000062  00000-0  13024-4 0  9991,2 56451  70.0006 335.2172 0002640 269.7534  90.3323 14.98330509 37346,6950.191,96.107,573.891,570.221,0.0
56451.0,STARLINK-5985,PAYLOAD,2024-01-10 07:57:57,14.98333296,0.0002609,70.0007,334.8803,269.2228,90.8632,4.4748e-05,4.41e-06,0.0,0 STARLINK-5985,1 56451U 23064D   24010.33191102  .00000441  00000-0  44748-4 0  9993,2 56451  70.0007 334.8803 0002609 269.2228  90.8632 14.98333296 37000,6950.183,96.107,573.861,570.234,0.0
56451.0,STARLINK-5985,PAYLOAD,2024-01-11 06:23:49,14.98332554,0.0002469,70.0013,332.526,245.4448,114.6454,9.5695e-06,2.1e-07,0.0,0 STARLINK-5985,1 56451U 23064D   24011.26654974  .00000021  00000-0  95695-5 0  9999,2 56451  70.0013 332.5260 0002469 245.4448 114.6454 14.98332554 37501,6950.185,96.107,573.766,570.334,0.0
56451.0,STARLINK-5985,PAYLOAD,2024-01-11 22:25:11,14.98323714,0.0002725,70.0014,330.8426,264.665,95.4198,-5.8063e-05,-7.86e-06,0.0,0 STARLINK-5985,1 56451U 23064D   24011.93415824 -.00000786  00000-0 -58063-4 0  9999,2 56451  70.0014 330.8426 0002725 264.6650  95.4198 14.98323714 37240,6950.212,96.107,573.971,570.183,0.0
56451.0,STARLINK-5985,PAYLOAD,2024-01-12 03:13:35,14.98321192,0.0002489,70.0015,330.3375,247.9698,112.1197,-8.3079e-05,-1.084e-05,0.0,0 STARLINK-5985,1 56451U 23064D   24012.13444101 -.00001084  00000-0 -83079-4 0  9999,2 56451  70.0015 330.3375 0002489 247.9698 112.1197 14.98321192 37639,6950.22,96.108,573.815,570.355,0.0
56451.0,STARLINK-5985,PAYLOAD,2024-01-12 06:25:51,14.98325279,0.0002581,70.0013,330.0013,252.21,107.8778,-3.267e-05,-4.83e-06,0.0,0 STARLINK-5985,1 56451U 23064D   24012.26795742 -.00000483  00000-0 -32670-4 0  9996,2 56451  70.0013 330.0013 0002581 252.2100 107.8778 14.98325279 37291,6950.207,96.107,573.866,570.279,0.0
56451.0,STARLINK-5985,PAYLOAD,2024-01-12 22:27:12,14.98327583,0.0002757,70.0003,328.3163,261.0048,99.0799,-2.2182e-05,-3.58e-06,0.0,0 STARLINK-5985,1 56451U 23064D   24012.93555640 -.00000358  00000-0 -22182-4 0  9999,2 56451  70.0003 328.3163 0002757 261.0048  99.0799 14.98327583 37396,6950.2,96.107,573.982,570.149,0.0
56451.0,STARLINK-5985,PAYLOAD,2024-01-13 03:15:36,14.9832868,0.0002773,70.0004,327.8112,262.8693,97.2151,-1.2272e-05,-2.39e-06,0.0,0 STARLINK-5985,1 56451U 23064D   24013.13583576 -.00000239  00000-0 -12272-4 0  9998,2 56451  70.0004 327.8112 0002773 262.8693  97.2151 14.98328680 37782,6950.197,96.107,573.989,570.135,0.0
56451.0,STARLINK-5985,PAYLOAD,2024-01-13 06:27:52,14.98331932,0.0002672,70.0006,327.4748,260.3675,99.7182,4.3674e-05,4.28e-06,0.0,0 STARLINK-5985,1 56451U 23064D   24013.26935204  .00000428  00000-0  43674-4 0  9999,2 56451  70.0006 327.4748 0002672 260.3675  99.7182 14.98331932 37444,6950.187,96.107,573.909,570.195,0.0
56451.0,STARLINK-5985,PAYLOAD,2024-01-14 03:17:37,14.98326429,0.0002663,70.0008,325.287,263.634,96.4516,6.2631e-05,6.54e-06,0.0,0 STARLINK-5985,1 56451U 23064D   24014.13723604  .00000654  00000-0  62631-4 0  9990,2 56451  70.0008 325.2870 0002663 263.6340  96.4516 14.98326429 37937,6950.204,96.107,573.92,570.218,0.0
56451.0,STARLINK-5985,PAYLOAD,2024-01-14 06:29:52,14.98337993,0.0002505,70.0009,324.9509,260.7557,99.3319,-6.7147e-05,-8.94e-06,0.0,0 STARLINK-5985,1 56451U 23064D   24014.27075170 -.00000894  00000-0 -67147-4 0  9998,2 56451  70.0009 324.9509 0002505 260.7557  99.3319 14.98337993 37959,6950.168,96.106,573.774,570.292,0.0
56451.0,STARLINK-5985,PAYLOAD,2024-01-14 22:31:13,14.98339099,0.0002448,70.0009,323.2672,259.6154,100.4729,-1.8952e-05,-3.19e-06,0.0,0 STARLINK-5985,1 56451U 23064D   24014.93835001 -.00000319  00000-0 -18952-4 0  9990,2 56451  70.0009 323.2672 0002448 259.6154 100.4729 14.98339099 37697,6950.165,96.106,573.731,570.328,0.0
